[{"OBJECT_NAME":"STARLINK-5395","OBJECT_ID":"2022-177M","EPOCH":"2026-03-09T13:16:49.340640","MEAN_MOTION":15.02536091,"ECCENTRICITY":0.0001324,"INCLINATION":43.0028,"RA_OF_ASC_NODE":134.1698,"ARG_OF_PERICENTER":263.6838,"MEAN_ANOMALY":96.3853,"EPHEMERIS_TYPE":0,"CLASSIFICATION_TYPE":"U","NORAD_CAT_ID":54831,"ELEMENT_SET_NO":999,"REV_AT_EPOCH":17693,"BSTAR":2.5505e-5,"MEAN_MOTION_DOT":1.41e-6,"MEAN_MOTION_DDOT":0},{"OBJECT_NAME":"ELECTRON KICK STAGE R\/B","OBJECT_ID":"2022-127B","EPOCH":"2026-03-09T17:09:40.821984","MEAN_MOTION":14.86457617,"ECCENTRICITY":0.01108806,"INCLINATION":98.1925,"RA_OF_ASC_NODE":123.6736,"ARG_OF_PERICENTER":332.423,"MEAN_ANOMALY":27.1129,"EPHEMERIS_TYPE":0,"CLASSIFICATION_TYPE":"U","NORAD_CAT_ID":54024,"ELEMENT_SET_NO":999,"REV_AT_EPOCH":18462,"BSTAR":0.00041708846,"MEAN_MOTION_DOT":4.056e-5,"MEAN_MOTION_DDOT":0}]
